{
  "type": "FeatureCollection",
  "features": [
    {
      "type": "Feature",
      "properties": {
        "norad_id": 38479,
        "name": "COSMOS 2251 DEB",
        "group": "cosmos-2251-debris",
        "lat": 53.56385016305607,
        "lon": -148.94569163235644,
        "alt_km": 787.8789299307828,
        "timestamp": "2025-12-10T14:53:37.485663+00:00",
        "meta_object_name": "COSMOS 2251 DEB",
        "meta_object_id": "1993-036BTP",
        "meta_epoch": "2025-12-10T06:49:46.172352",
        "meta_mean_motion": 14.38253174,
        "meta_eccentricity": 0.00842242,
        "meta_inclination": 74.007,
        "meta_ra_of_asc_node": 188.8137,
        "meta_arg_of_pericenter": 298.3145,
        "meta_mean_anomaly": 178.6489,
        "meta_ephemeris_type": 0,
        "meta_classification_type": "U",
        "meta_norad_cat_id": 38479,
        "meta_element_set_no": 999,
        "meta_rev_at_epoch": 64652,
        "meta_bstar": 0.0026738015,
        "meta_mean_motion_dot": 8.453e-05,
        "meta_mean_motion_ddot": 0,
        "tle_line1": "1 38479U 93036BTP 25344.28456218  .00008453  00000+0  26738-2 0  9993",
        "tle_line2": "2 38479  74.0070 188.8137 0084224 298.3145 178.6489 14.38253174646523"
      },
      "geometry": {
        "type": "Point",
        "coordinates": [
          -148.94569163235644,
          53.56385016305607
        ]
      }
    },
    {
      "type": "Feature",
      "properties": {
        "norad_id": 38481,
        "name": "COSMOS 2251 DEB",
        "group": "cosmos-2251-debris",
        "lat": -64.32355445350858,
        "lon": -25.607719812595562,
        "alt_km": 759.8807420247786,
        "timestamp": "2025-12-10T14:53:37.485672+00:00",
        "meta_object_name": "COSMOS 2251 DEB",
        "meta_object_id": "1993-036BTR",
        "meta_epoch": "2025-12-07T20:04:54.972768",
        "meta_mean_motion": 13.94787579,
        "meta_eccentricity": 0.0233704,
        "meta_inclination": 73.9329,
        "meta_ra_of_asc_node": 16.0313,
        "meta_arg_of_pericenter": 317.436,
        "meta_mean_anomaly": 40.8857,
        "meta_ephemeris_type": 0,
        "meta_classification_type": "U",
        "meta_norad_cat_id": 38481,
        "meta_element_set_no": 999,
        "meta_rev_at_epoch": 58992,
        "meta_bstar": 0.0025212109,
        "meta_mean_motion_dot": 4.22e-05,
        "meta_mean_motion_ddot": 0,
        "tle_line1": "1 38481U 93036BTR 25341.83674737  .00004220  00000+0  25212-2 0  9996",
        "tle_line2": "2 38481  73.9329  16.0313 0233704 317.4360  40.8857 13.94787579589921"
      },
      "geometry": {
        "type": "Point",
        "coordinates": [
          -25.607719812595562,
          -64.32355445350858
        ]
      }
    },
    {
      "type": "Feature",
      "properties": {
        "norad_id": 38483,
        "name": "COSMOS 2251 DEB",
        "group": "cosmos-2251-debris",
        "lat": 42.51018704909475,
        "lon": -179.43971724301173,
        "alt_km": 714.8456644748112,
        "timestamp": "2025-12-10T14:53:37.485681+00:00",
        "meta_object_name": "COSMOS 2251 DEB",
        "meta_object_id": "1993-036BTT",
        "meta_epoch": "2025-12-09T19:47:02.543136",
        "meta_mean_motion": 14.28773008,
        "meta_eccentricity": 0.01104951,
        "meta_inclination": 74.2621,
        "meta_ra_of_asc_node": 16.9647,
        "meta_arg_of_pericenter": 123.4818,
        "meta_mean_anomaly": 237.6953,
        "meta_ephemeris_type": 0,
        "meta_classification_type": "U",
        "meta_norad_cat_id": 38483,
        "meta_element_set_no": 999,
        "meta_rev_at_epoch": 63436,
        "meta_bstar": 0.0013200119,
        "meta_mean_motion_dot": 3.528e-05,
        "meta_mean_motion_ddot": 0,
        "tle_line1": "1 38483U 93036BTT 25343.82433499  .00003528  00000+0  13200-2 0  9991",
        "tle_line2": "2 38483  74.2621  16.9647 0110495 123.4818 237.6953 14.28773008634367"
      },
      "geometry": {
        "type": "Point",
        "coordinates": [
          -179.43971724301173,
          42.51018704909475
        ]
      }
    },
    {
      "type": "Feature",
      "properties": {
        "norad_id": 38486,
        "name": "COSMOS 2251 DEB",
        "group": "cosmos-2251-debris",
        "lat": 40.517600360071256,
        "lon": 14.759332870689047,
        "alt_km": 664.599096202367,
        "timestamp": "2025-12-10T14:53:37.485690+00:00",
        "meta_object_name": "COSMOS 2251 DEB",
        "meta_object_id": "1993-036BTW",
        "meta_epoch": "2025-12-09T09:44:58.569216",
        "meta_mean_motion": 14.73093158,
        "meta_eccentricity": 0.0030131,
        "meta_inclination": 73.9406,
        "meta_ra_of_asc_node": 211.3897,
        "meta_arg_of_pericenter": 356.1257,
        "meta_mean_anomaly": 183.7867,
        "meta_ephemeris_type": 0,
        "meta_classification_type": "U",
        "meta_norad_cat_id": 38486,
        "meta_element_set_no": 999,
        "meta_rev_at_epoch": 75385,
        "meta_bstar": 0.0034479645,
        "meta_mean_motion_dot": 0.00022398,
        "meta_mean_motion_ddot": 0,
        "tle_line1": "1 38486U 93036BTW 25343.40623344  .00022398  00000+0  34480-2 0  9997",
        "tle_line2": "2 38486  73.9406 211.3897 0030131 356.1257 183.7867 14.73093158753857"
      },
      "geometry": {
        "type": "Point",
        "coordinates": [
          14.759332870689047,
          40.517600360071256
        ]
      }
    },
    {
      "type": "Feature",
      "properties": {
        "norad_id": 38487,
        "name": "COSMOS 2251 DEB",
        "group": "cosmos-2251-debris",
        "lat": -57.06078729068701,
        "lon": 11.925748871811257,
        "alt_km": 521.2631680887253,
        "timestamp": "2025-12-10T14:53:37.485699+00:00",
        "meta_object_name": "COSMOS 2251 DEB",
        "meta_object_id": "1993-036BTX",
        "meta_epoch": "2025-12-09T10:40:20.228448",
        "meta_mean_motion": 15.16928428,
        "meta_eccentricity": 0.002192,
        "meta_inclination": 73.9736,
        "meta_ra_of_asc_node": 40.7247,
        "meta_arg_of_pericenter": 212.6657,
        "meta_mean_anomaly": 147.3184,
        "meta_ephemeris_type": 0,
        "meta_classification_type": "U",
        "meta_norad_cat_id": 38487,
        "meta_element_set_no": 999,
        "meta_rev_at_epoch": 66750,
        "meta_bstar": 0.002701932,
        "meta_mean_motion_dot": 0.00053983,
        "meta_mean_motion_ddot": 0,
        "tle_line1": "1 38487U 93036BTX 25343.44467857  .00053983  00000+0  27019-2 0  9991",
        "tle_line2": "2 38487  73.9736  40.7247 0021920 212.6657 147.3184 15.16928428667502"
      },
      "geometry": {
        "type": "Point",
        "coordinates": [
          11.925748871811257,
          -57.06078729068701
        ]
      }
    },
    {
      "type": "Feature",
      "properties": {
        "norad_id": 39109,
        "name": "COSMOS 2251 DEB",
        "group": "cosmos-2251-debris",
        "lat": -32.7532359484262,
        "lon": 59.79691731946361,
        "alt_km": 684.6047996254592,
        "timestamp": "2025-12-10T14:53:37.485708+00:00",
        "meta_object_name": "COSMOS 2251 DEB",
        "meta_object_id": "1993-036BTY",
        "meta_epoch": "2025-12-09T10:58:18.988608",
        "meta_mean_motion": 14.70683686,
        "meta_eccentricity": 0.00592583,
        "meta_inclination": 74.0426,
        "meta_ra_of_asc_node": 231.4464,
        "meta_arg_of_pericenter": 335.6145,
        "meta_mean_anomaly": 202.0339,
        "meta_ephemeris_type": 0,
        "meta_classification_type": "U",
        "meta_norad_cat_id": 39109,
        "meta_element_set_no": 999,
        "meta_rev_at_epoch": 65125,
        "meta_bstar": 0.00089315049,
        "meta_mean_motion_dot": 5.561e-05,
        "meta_mean_motion_ddot": 0,
        "tle_line1": "1 39109U 93036BTY 25343.45716422  .00005561  00000+0  89315-3 0  9996",
        "tle_line2": "2 39109  74.0426 231.4464 0059258 335.6145 202.0339 14.70683686651254"
      },
      "geometry": {
        "type": "Point",
        "coordinates": [
          59.79691731946361,
          -32.7532359484262
        ]
      }
    },
    {
      "type": "Feature",
      "properties": {
        "norad_id": 39110,
        "name": "COSMOS 2251 DEB",
        "group": "cosmos-2251-debris",
        "lat": 24.28560039460577,
        "lon": 73.11079535594358,
        "alt_km": 648.9162049498427,
        "timestamp": "2025-12-10T14:53:37.485717+00:00",
        "meta_object_name": "COSMOS 2251 DEB",
        "meta_object_id": "1993-036BTZ",
        "meta_epoch": "2025-12-03T13:14:13.055136",
        "meta_mean_motion": 14.72215365,
        "meta_eccentricity": 0.00964609,
        "meta_inclination": 73.9598,
        "meta_ra_of_asc_node": 79.4668,
        "meta_arg_of_pericenter": 313.6965,
        "meta_mean_anomaly": 59.6182,
        "meta_ephemeris_type": 0,
        "meta_classification_type": "U",
        "meta_norad_cat_id": 39110,
        "meta_element_set_no": 999,
        "meta_rev_at_epoch": 62349,
        "meta_bstar": 0.00066560445,
        "meta_mean_motion_dot": 4.484e-05,
        "meta_mean_motion_ddot": 0,
        "tle_line1": "1 39110U 93036BTZ 25337.55153999  .00004484  00000+0  66560-3 0  9996",
        "tle_line2": "2 39110  73.9598  79.4668 0096460 313.6965  59.6182 14.72215365623496"
      },
      "geometry": {
        "type": "Point",
        "coordinates": [
          73.11079535594358,
          24.28560039460577
        ]
      }
    }
  ]
}